METHANESAT              
1 59101U 24043D   25182.23502377  .00002883  00000+0  26571-3 0  9990
2 59101  97.8026 308.2342 0012604 101.5038 258.7599 14.95425025 72150
